     2.10           G: GLONASS NAV DATA                     RINEX VERSION / TYPE
teqc  2015Jun23                         20220612 01:25:41UTCPGM / RUN BY / DATE
Linux 2.4.21-27.ELsmp|Opteron|gcc -static|Linux x86_64|=+   COMMENT
  2022     6     1   -4.656612873077D-10                    CORR TO SYSTEM TIME
                                                            END OF HEADER
 7 22  6  2  7 15  0.0 3.589224070311D-05 0.000000000000D+00 2.520000000000D+04
    1.969322265625D+03-1.504384994507D+00-0.000000000000D+00 0.000000000000D+00
    1.477945947266D+04 2.409151077271D+00-0.000000000000D+00 5.000000000000D+00
   -2.066633935547D+04 1.572122573853D+00 2.793967723846D-09 0.000000000000D+00
 9 22  6  2  7 15  0.0 5.831662565470D-05 1.818989403546D-12 2.520000000000D+04
    1.781838378906D+03-9.378137588501D-01-0.000000000000D+00 0.000000000000D+00
    1.998728027344D+04-1.938976287842D+00 0.000000000000D+00-2.000000000000D+00
   -1.568133398438D+04-2.581953048706D+00 2.793967723846D-09 0.000000000000D+00
10 22  6  2  7 15  0.0-8.295290172100D-05 0.000000000000D+00 2.520000000000D+04
    1.135140966797D+04 7.644081115723D-02-9.313225746155D-10 0.000000000000D+00
    2.286296777344D+04-1.959362030029D-01 2.793967723846D-09-7.000000000000D+00
   -1.019639648438D+03-3.556839942932D+00 2.793967723846D-09 0.000000000000D+00
11 22  6  2  7 15  0.0 3.738142549992D-05-9.094947017729D-13 2.661000000000D+04
    1.520607031250D+04 1.115003585815D+00-1.862645149231D-09 0.000000000000D+00
    1.289054443359D+04 1.874844551086D+00 2.793967723846D-09 0.000000000000D+00
    1.591618505859D+04-2.586874008179D+00 0.000000000000D+00 0.000000000000D+00
11 22  6  2  7 45  0.0 3.737956285477D-05-9.094947017729D-13 2.700000000000D+04
    1.711659130859D+04 9.635601043701D-01-9.313225746155D-10 0.000000000000D+00
    1.558738378906D+04 1.113075256348D+00 3.725290298462D-09 0.000000000000D+00
    1.070464843750D+04-3.166166305542D+00 9.313225746155D-10 0.000000000000D+00
 6 22  6  2  7 45  0.0-5.167163908482D-05-1.818989403546D-12 2.700000000000D+04
   -9.754852539062D+03 3.640079498291D-02 9.313225746155D-10 0.000000000000D+00
    2.351537451172D+04 2.789192199707D-01 2.793967723846D-09-4.000000000000D+00
   -1.750994140625D+03 3.551170349121D+00 2.793967723846D-09 0.000000000000D+00
 5 22  6  2  7 45  0.0 9.391084313393D-05 9.094947017729D-13 2.700000000000D+04
   -1.480630078125D+04 1.139018058777D+00 9.313225746155D-10 0.000000000000D+00
    1.214998730469D+04-2.010592460632D+00 3.725290298462D-09 1.000000000000D+00
    1.687367089844D+04 2.447537422180D+00 0.000000000000D+00 0.000000000000D+00
 7 22  6  2  7 45  0.0 3.589317202568D-05 0.000000000000D+00 2.700000000000D+04
   -2.184150390625D+02-9.251136779785D-01 0.000000000000D+00 0.000000000000D+00
    1.893381933594D+04 2.158118247986D+00 0.000000000000D+00 5.000000000000D+00
   -1.707235058594D+04 2.395038604736D+00 2.793967723846D-09 0.000000000000D+00
 9 22  6  2  7 45  0.0 5.831941962242D-05 1.818989403546D-12 2.700000000000D+04
   -4.273515625000D+02-1.517147064209D+00 0.000000000000D+00 0.000000000000D+00
    1.619241113281D+04-2.230556488037D+00-0.000000000000D+00-2.000000000000D+00
   -1.965953759766D+04-1.809547424316D+00 2.793967723846D-09 0.000000000000D+00
10 22  6  2  7 45  0.0-8.295290172100D-05 0.000000000000D+00 2.700000000000D+04
    1.104254736328D+04-4.489135742188D-01-0.000000000000D+00 0.000000000000D+00
    2.184839404297D+04-9.026403427124D-01 1.862645149231D-09-7.000000000000D+00
   -7.300333496094D+03-3.376588821411D+00 2.793967723846D-09 0.000000000000D+00
11 22  6  2  8 15  0.0 3.737770020962D-05-9.094947017729D-13 2.880000000000D+04
    1.851850000000D+04 5.530118942261D-01-0.000000000000D+00 0.000000000000D+00
    1.690152880859D+04 3.576574325562D-01 3.725290298462D-09 0.000000000000D+00
    4.665168457031D+03-3.500790596008D+00 1.862645149231D-09 0.000000000000D+00
 6 22  6  2  8 15  0.0-5.167536437511D-05-1.818989403546D-12 2.880000000000D+04
   -9.395606933594D+03 3.237590789795D-01 1.862645149231D-09 0.000000000000D+00
    2.326894482422D+04-5.639848709106D-01 2.793967723846D-09-4.000000000000D+00
    4.626235351562D+03 3.488672256470D+00 1.862645149231D-09 0.000000000000D+00
 5 22  6  2  8 15  0.0 9.391270577908D-05 9.094947017729D-13 2.880000000000D+04
   -1.285685058594D+04 9.886884689331D-01 1.862645149231D-09 0.000000000000D+00
    7.941610351562D+03-2.635189056396D+00 2.793967723846D-09 1.000000000000D+00
    2.057152197266D+04 1.634573936462D+00-0.000000000000D+00 0.000000000000D+00
 7 22  6  2  8 15  0.0 3.589317202568D-05 0.000000000000D+00 2.880000000000D+04
   -1.389328125000D+03-3.924875259399D-01 9.313225746155D-10 0.000000000000D+00
    2.238171386719D+04 1.630304336548D+00 9.313225746155D-10 5.000000000000D+00
   -1.215634082031D+04 3.031550407410D+00 2.793967723846D-09 0.000000000000D+00
 9 22  6  2  8 15  0.0 5.832221359015D-05 1.818989403546D-12 2.880000000000D+04
   -3.648159179688D+03-2.043754577637D+00 0.000000000000D+00 0.000000000000D+00
    1.212774267578D+04-2.239564895630D+00-9.313225746155D-10-2.000000000000D+00
   -2.211169482422D+04-8.974857330322D-01 1.862645149231D-09 0.000000000000D+00
10 22  6  2  8 15  0.0-8.295197039843D-05 0.000000000000D+00 2.880000000000D+04
    9.655691894531D+03-1.106090545654D+00-0.000000000000D+00 0.000000000000D+00
    1.974042626953D+04-1.398962974548D+00 9.313225746155D-10-7.000000000000D+00
   -1.301893701172D+04-2.936303138733D+00 2.793967723846D-09 0.000000000000D+00
20 22  6  2  8 15  0.0-7.179006934166D-05-0.000000000000D+00 2.997000000000D+04
   -1.746082519531D+04-2.100342750549D+00 1.862645149231D-09 0.000000000000D+00
    9.924225585938D+03 5.371494293213D-01 1.862645149231D-09 2.000000000000D+00
    1.575339599609D+04-2.662342071533D+00-0.000000000000D+00 0.000000000000D+00
 8 22  6  2  8 15  0.0-6.545148789883D-05-9.094947017729D-13 3.027000000000D+04
    7.705335449219D+03-9.191942214966D-01-0.000000000000D+00 0.000000000000D+00
    1.000422851562D+04 2.901122093201D+00-9.313225746155D-10 6.000000000000D+00
   -2.210587109375D+04 9.876337051392D-01 1.862645149231D-09 0.000000000000D+00
11 22  6  2  8 45  0.0 3.737583756447D-05-9.094947017729D-13 3.060000000000D+04
    1.897575146484D+04-7.567882537842D-02-0.000000000000D+00 0.000000000000D+00
    1.694452929688D+04-2.825717926025D-01 2.793967723846D-09 0.000000000000D+00
   -1.735280273438D+03-3.564595222473D+00 2.793967723846D-09 0.000000000000D+00
 6 22  6  2  8 45  0.0-5.167908966541D-05-1.818989403546D-12 3.060000000000D+04
   -8.736255859375D+03 3.677387237549D-01 1.862645149231D-09 0.000000000000D+00
    2.147909570312D+04-1.416646003723D+00 2.793967723846D-09-4.000000000000D+00
    1.064608447266D+04 3.156640052795D+00 9.313225746155D-10 0.000000000000D+00
 7 22  6  2  8 45  0.0 3.589503467083D-05 0.000000000000D+00 3.060000000000D+04
   -1.718694824219D+03-4.423141479492D-03 1.862645149231D-09 0.000000000000D+00
    2.467076611328D+04 8.834362030029D-01 1.862645149231D-09 5.000000000000D+00
   -6.300220214844D+03 3.432929992676D+00 2.793967723846D-09 0.000000000000D+00
 8 22  6  2  8 45  0.0-6.545335054398D-05-0.000000000000D+00 3.060000000000D+04
    6.502000488281D+03-4.219598770142D-01 0.000000000000D+00 0.000000000000D+00
    1.504639794922D+04 2.651027679443D+00-0.000000000000D+00 6.000000000000D+00
   -1.949206542969D+04 1.897480964661D+00 2.793967723846D-09 0.000000000000D+00
 9 22  6  2  8 45  0.0 5.832500755787D-05 1.818989403546D-12 3.060000000000D+04
   -7.691120605469D+03-2.414872169495D+00 0.000000000000D+00 0.000000000000D+00
    8.284034667969D+03-1.993168830872D+00-1.862645149231D-09-2.000000000000D+00
   -2.284931250000D+04 8.303260803223D-02 9.313225746155D-10 0.000000000000D+00
10 22  6  2  8 45  0.0-8.295197039843D-05 0.000000000000D+00 3.060000000000D+04
    7.042430175781D+03-1.793257713318D+00 0.000000000000D+00 0.000000000000D+00
    1.696990283203D+04-1.633815765381D+00-0.000000000000D+00-7.000000000000D+00
   -1.773483251953D+04-2.269613265991D+00 2.793967723846D-09 0.000000000000D+00
20 22  6  2  8 45  0.0-7.179100066423D-05-0.000000000000D+00 3.060000000000D+04
   -2.053993066406D+04-1.299361228943D+00 1.862645149231D-09 0.000000000000D+00
    1.101659765625D+04 6.353416442871D-01 9.313225746155D-10 2.000000000000D+00
    1.041524609375D+04-3.230472564697D+00-0.000000000000D+00 0.000000000000D+00
21 22  6  2  8 45  0.0-3.061341121793D-04-2.728484105319D-12 3.174000000000D+04
   -2.323891113281D+03-2.926909446716D+00 1.862645149231D-09 0.000000000000D+00
    1.152234960938D+04 1.038298606873D+00 3.725290298462D-09 4.000000000000D+00
    2.262729589844D+04-8.311767578125D-01 0.000000000000D+00 0.000000000000D+00
11 22  6  2  9 15  0.0 3.737304359674D-05-9.094947017729D-13 3.240000000000D+04
    1.816263720703D+04-8.425054550171D-01 0.000000000000D+00 0.000000000000D+00
    1.600572412109D+04-7.216291427612D-01 1.862645149231D-09 0.000000000000D+00
   -8.001362792969D+03-3.352439880371D+00 2.793967723846D-09 0.000000000000D+00
 6 22  6  2  9 15  0.0-5.168188363314D-05-1.818989403546D-12 3.240000000000D+04
   -8.212708984375D+03 1.782293319702D-01 2.793967723846D-09 0.000000000000D+00
    1.823221484375D+04-2.164475440979D+00 2.793967723846D-09-4.000000000000D+00
    1.584336669922D+04 2.580622673035D+00 0.000000000000D+00 0.000000000000D+00
 7 22  6  2  9 15  0.0 3.589596599340D-05 0.000000000000D+00 3.240000000000D+04
   -1.534289062500D+03 1.699457168579D-01 1.862645149231D-09 0.000000000000D+00
    2.548591113281D+04 1.029968261719D-02 1.862645149231D-09 5.000000000000D+00
    4.251757812500D+01 3.568853378296D+00 2.793967723846D-09 0.000000000000D+00
 8 22  6  2  9 15  0.0-6.545428186655D-05-0.000000000000D+00 3.240000000000D+04
    6.139632324219D+03-1.914978027344D-03 0.000000000000D+00 0.000000000000D+00
    1.937786865234D+04 2.118982315063D+00 0.000000000000D+00 6.000000000000D+00
   -1.536420458984D+04 2.658955574036D+00 2.793967723846D-09 0.000000000000D+00
